NORAD_CAT_ID,OBJECT_NAME,OBJECT_TYPE,EPOCH,MEAN_MOTION,ECCENTRICITY,INCLINATION,RA_OF_ASC_NODE,ARG_OF_PERICENTER,MEAN_ANOMALY,BSTAR,MEAN_MOTION_DOT,MEAN_MOTION_DDOT,TLE_LINE0,TLE_LINE1,TLE_LINE2,SEMIMAJOR_AXIS,PERIOD,APOGEE,PERIGEE,DECAYED
52494.0,STARLINK-3857,PAYLOAD,2024-07-07 09:46:21,15.08836329,0.0001434,53.217,268.79,87.8739,272.2417,8.906e-05,1.13e-05,0.0,0 STARLINK-3857,1 52494U 22049AV  24189.40719464  .00001130  00000-0  89060-4 0  9992,2 52494  53.2170 268.7900 0001434  87.8739 272.2417 15.08836329120261,6917.892,95.438,540.749,538.765,0.0
52494.0,STARLINK-3857,PAYLOAD,2024-07-08 11:12:31,15.08845351,0.0001128,53.2146,264.0297,90.9559,269.1562,0.00026311,3.903e-05,0.0,0 STARLINK-3857,1 52494U 22049AV  24190.46703226  .00003903  00000-0  26311-3 0  9998,2 52494  53.2146 264.0297 0001128  90.9559 269.1562 15.08845351120583,6917.864,95.437,540.509,538.949,0.0
52494.0,STARLINK-3857,PAYLOAD,2024-07-08 22:20:13,15.08854038,0.0001139,53.2145,261.948,86.7864,273.3259,0.00035408,5.354e-05,0.0,0 STARLINK-3857,1 52494U 22049AV  24190.93070784  .00005354  00000-0  35408-3 0  9995,2 52494  53.2145 261.9480 0001139  86.7864 273.3259 15.08854038120498,6917.837,95.437,540.49,538.915,0.0
52494.0,STARLINK-3857,PAYLOAD,2024-07-09 11:03:18,15.08841681,0.0001325,53.214,259.5687,90.164,269.9504,9.3329e-05,1.198e-05,0.0,0 STARLINK-3857,1 52494U 22049AV  24191.46063174  .00001198  00000-0  93329-4 0  9998,2 52494  53.2140 259.5687 0001325  90.1640 269.9504 15.08841681120734,6917.875,95.437,540.657,538.824,0.0
52494.0,STARLINK-3857,PAYLOAD,2024-07-10 14:04:51,15.0884168,0.0001283,53.2159,254.5126,93.9411,266.1728,4.0697e-05,3.6e-06,0.0,0 STARLINK-3857,1 52494U 22049AV  24192.58671159  .00000360  00000-0  40697-4 0  9990,2 52494  53.2159 254.5126 0001283  93.9411 266.1728 15.08841680120744,6917.875,95.437,540.628,538.853,0.0
52494.0,STARLINK-3857,PAYLOAD,2024-07-11 13:55:38,15.08842878,0.0001348,53.2155,250.0516,93.5787,266.5359,0.00012754,1.743e-05,0.0,0 STARLINK-3857,1 52494U 22049AV  24193.58031080  .00001743  00000-0  12754-3 0  9992,2 52494  53.2155 250.0516 0001348  93.5787 266.5359 15.08842878120898,6917.872,95.437,540.669,538.804,0.0
52494.0,STARLINK-3857,PAYLOAD,2024-07-11 20:17:11,15.08849451,0.0001372,53.2158,248.8632,93.1292,266.9857,0.000198,2.865e-05,0.0,0 STARLINK-3857,1 52494U 22049AV  24193.84526658  .00002865  00000-0  19800-3 0  9996,2 52494  53.2158 248.8632 0001372  93.1292 266.9857 15.08849451121093,6917.852,95.437,540.666,538.767,0.0
52494.0,STARLINK-3857,PAYLOAD,2024-07-12 10:35:40,15.08831016,0.00016,53.2172,246.1927,108.6623,251.4543,-2.7976e-05,-7.33e-06,0.0,0 STARLINK-3857,1 52494U 22049AV  24194.44143854 -.00000733  00000-0 -27976-4 0  9994,2 52494  53.2172 246.1927 0001600 108.6623 251.4543 15.08831016121180,6917.908,95.438,540.88,538.666,0.0
52494.0,STARLINK-3857,PAYLOAD,2024-07-13 02:29:31,15.08840132,0.0001365,53.2155,243.2137,89.1805,270.9343,9.6893e-05,1.254e-05,0.0,0 STARLINK-3857,1 52494U 22049AV  24195.10383521  .00001254  00000-0  96893-4 0  9996,2 52494  53.2155 243.2137 0001365  89.1805 270.9343 15.08840132121289,6917.88,95.438,540.689,538.801,0.0
52494.0,STARLINK-3857,PAYLOAD,2024-07-13 10:26:26,15.08843569,0.000136,53.2154,241.7274,93.0595,267.0553,0.00015925,2.248e-05,0.0,0 STARLINK-3857,1 52494U 22049AV  24195.43503396  .00002248  00000-0  15925-3 0  9996,2 52494  53.2154 241.7274 0001360  93.0595 267.0553 15.08843569121173,6917.869,95.437,540.675,538.794,0.0
52494.0,STARLINK-3857,PAYLOAD,2024-07-13 19:58:45,15.08849449,0.000135,53.2153,239.9431,90.7691,269.3456,0.00029768,4.454e-05,0.0,0 STARLINK-3857,1 52494U 22049AV  24195.83247245  .00004454  00000-0  29768-3 0  9999,2 52494  53.2153 239.9431 0001350  90.7691 269.3456 15.08849449121233,6917.852,95.437,540.65,538.783,0.0
52494.0,STARLINK-3857,PAYLOAD,2024-07-14 11:52:37,15.08841569,0.0001417,53.2156,236.9695,89.9901,270.1254,0.00017219,2.454e-05,0.0,0 STARLINK-3857,1 52494U 22049AV  24196.49487658  .00002454  00000-0  17219-3 0  9992,2 52494  53.2156 236.9695 0001417  89.9901 270.1254 15.08841569121492,6917.876,95.437,540.721,538.76,0.0
52494.0,STARLINK-3857,PAYLOAD,2024-07-14 19:49:32,15.08849844,0.0001426,53.2157,235.4824,85.3847,274.7308,0.00027714,4.127e-05,0.0,0 STARLINK-3857,1 52494U 22049AV  24196.82607308  .00004127  00000-0  27714-3 0  9995,2 52494  53.2157 235.4824 0001426  85.3847 274.7308 15.08849844121382,6917.85,95.437,540.702,538.729,0.0
52494.0,STARLINK-3857,PAYLOAD,2024-07-15 10:08:01,15.08844805,0.0001327,53.2148,232.805,89.4087,270.7057,0.00015554,2.189e-05,0.0,0 STARLINK-3857,1 52494U 22049AV  24197.42223465  .00002189  00000-0  15554-3 0  9995,2 52494  53.2148 232.8050 0001327  89.4087 270.7057 15.08844805121474,6917.866,95.437,540.649,538.813,0.0
52494.0,STARLINK-3857,PAYLOAD,2024-07-15 19:40:19,15.08846133,0.0001312,53.2146,231.0209,89.5918,270.5225,0.00018146,2.602e-05,0.0,0 STARLINK-3857,1 52494U 22049AV  24197.81967326  .00002602  00000-0  18146-3 0  9999,2 52494  53.2146 231.0209 0001312  89.5918 270.5225 15.08846133121692,6917.862,95.437,540.634,538.819,0.0
52494.0,STARLINK-3857,PAYLOAD,2024-07-16 11:34:11,15.08844344,0.0001433,53.2151,228.0484,88.3591,271.7565,0.0001748,2.495e-05,0.0,0 STARLINK-3857,1 52494U 22049AV  24198.48207540  .00002495  00000-0  17480-3 0  9998,2 52494  53.2151 228.0484 0001433  88.3591 271.7565 15.08844344121790,6917.867,95.437,540.723,538.741,0.0
52494.0,STARLINK-3857,PAYLOAD,2024-07-17 05:03:26,15.08839294,0.000144,53.2148,224.776,89.7731,270.3426,0.00012338,1.676e-05,0.0,0 STARLINK-3857,1 52494U 22049AV  24199.21071762  .00001676  00000-0  12338-3 0  9992,2 52494  53.2148 224.7760 0001440  89.7731 270.3426 15.08839294121907,6917.883,95.438,540.744,538.751,0.0
52494.0,STARLINK-3857,PAYLOAD,2024-07-17 08:14:12,15.08839326,0.0001422,53.2151,224.1818,89.0054,271.1101,0.00010509,1.385e-05,0.0,0 STARLINK-3857,1 52494U 22049AV  24199.34319796  .00001385  00000-0  10509-3 0  9993,2 52494  53.2151 224.1818 0001422  89.0054 271.1101 15.08839326121769,6917.882,95.438,540.731,538.764,0.0
52494.0,STARLINK-3857,PAYLOAD,2024-07-18 11:15:45,15.08840242,0.0001408,53.2152,219.1255,90.1949,269.9204,8.5781e-05,1.078e-05,0.0,0 STARLINK-3857,1 52494U 22049AV  24200.46927839  .00001078  00000-0  85781-4 0  9996,2 52494  53.2152 219.1255 0001408  90.1949 269.9204 15.08840242122094,6917.88,95.438,540.719,538.771,0.0
52494.0,STARLINK-3857,PAYLOAD,2024-07-19 11:06:33,15.08832377,0.0001323,53.2158,214.6649,90.8553,269.2591,1.4494e-05,-5.7e-07,0.0,0 STARLINK-3857,1 52494U 22049AV  24201.46288567 -.00000057  00000-0  14494-4 0  9995,2 52494  53.2158 214.6649 0001323  90.8553 269.2591 15.08832377122240,6917.904,95.438,540.684,538.853,0.0
52494.0,STARLINK-3857,PAYLOAD,2024-07-19 17:28:05,15.08836222,0.0001363,53.2164,213.4758,91.9959,268.119,4.0954e-05,3.64e-06,0.0,0 STARLINK-3857,1 52494U 22049AV  24201.72784324  .00000364  00000-0  40954-4 0  9996,2 52494  53.2164 213.4758 0001363  91.9959 268.1190 15.08836222122124,6917.892,95.438,540.7,538.814,0.0
52494.0,STARLINK-3857,PAYLOAD,2024-07-20 07:46:33,15.08836292,0.000135,53.2161,210.8009,99.1113,261.0032,6.3645e-05,7.25e-06,0.0,0 STARLINK-3857,1 52494U 22049AV  24202.32400401  .00000725  00000-0  63645-4 0  9997,2 52494  53.2161 210.8009 0001350  99.1113 261.0032 15.08836292122213,6917.892,95.438,540.691,538.823,0.0
52494.0,STARLINK-3857,PAYLOAD,2024-07-20 17:18:52,15.08841302,0.0001335,53.2163,209.0161,96.2724,263.8421,0.00010141,1.326e-05,0.0,0 STARLINK-3857,1 52494U 22049AV  24202.72144079  .00001326  00000-0  10141-3 0  9997,2 52494  53.2163 209.0161 0001335  96.2724 263.8421 15.08841302122437,6917.876,95.437,540.665,538.818,0.0
52494.0,STARLINK-3857,PAYLOAD,2024-07-21 04:26:34,15.08835562,0.0001371,53.2165,206.935,98.1825,261.9323,9.3898e-05,1.207e-05,0.0,0 STARLINK-3857,1 52494U 22049AV  24203.18512568  .00001207  00000-0  93898-4 0  9999,2 52494  53.2165 206.9350 0001371  98.1825 261.9323 15.08835562122507,6917.894,95.438,540.707,538.811,0.0
52494.0,STARLINK-3857,PAYLOAD,2024-07-21 09:12:44,15.0883849,0.0001393,53.2165,206.043,98.3116,261.8034,0.00011773,1.586e-05,0.0,0 STARLINK-3857,1 52494U 22049AV  24203.38384400  .00001586  00000-0  11773-3 0  9994,2 52494  53.2165 206.0430 0001393  98.3116 261.8034 15.08838490122372,6917.885,95.438,540.714,538.786,0.0
52494.0,STARLINK-3857,PAYLOAD,2024-07-22 09:03:31,15.08841673,0.0001351,53.216,201.5819,94.6325,265.4821,8.6916e-05,1.096e-05,0.0,0 STARLINK-3857,1 52494U 22049AV  24204.37744368  .00001096  00000-0  86916-4 0  9995,2 52494  53.2160 201.5819 0001351  94.6325 265.4821 15.08841673122688,6917.875,95.437,540.675,538.806,0.0
52494.0,STARLINK-3857,PAYLOAD,2024-07-23 07:18:54,15.08845223,0.0001315,53.2156,197.418,93.6029,266.5113,7.4182e-05,8.93e-06,0.0,0 STARLINK-3857,1 52494U 22049AV  24205.30480144  .00000893  00000-0  74182-4 0  9994,2 52494  53.2156 197.4180 0001315  93.6029 266.5113 15.08845223122666,6917.864,95.437,540.639,538.82,0.0
52494.0,STARLINK-3857,PAYLOAD,2024-07-23 23:12:46,15.08841961,0.0001323,53.2154,194.4449,91.9316,268.1828,7.0903e-05,8.41e-06,0.0,0 STARLINK-3857,1 52494U 22049AV  24205.96720290  .00000841  00000-0  70903-4 0  9995,2 52494  53.2154 194.4449 0001323  91.9316 268.1828 15.08841961122765,6917.874,95.437,540.655,538.824,0.0
52494.0,STARLINK-3857,PAYLOAD,2024-07-24 05:34:19,15.08838826,0.0001308,53.2156,193.2538,95.8381,264.276,3.6584e-05,2.94e-06,0.0,0 STARLINK-3857,1 52494U 22049AV  24206.23216542  .00000294  00000-0  36584-4 0  9995,2 52494  53.2156 193.2538 0001308  95.8381 264.2760 15.08838826122961,6917.884,95.438,540.654,538.844,0.0
52494.0,STARLINK-3857,PAYLOAD,2024-07-24 23:03:33,15.08840215,0.0001339,53.216,189.9828,97.4305,262.6839,4.4227e-05,4.16e-06,0.0,0 STARLINK-3857,1 52494U 22049AV  24206.96080485  .00000416  00000-0  44227-4 0  9999,2 52494  53.2160 189.9828 0001339  97.4305 262.6839 15.08840215122917,6917.88,95.438,540.671,538.818,0.0
